{"type": "FeatureCollection", "crs": {"type": "name", "properties": {"name": "urn:ogc:def:crs:OGC:1.3:CRS84"}}, "features": [{"type": "Feature", "properties": {"Name": "Han Dynasty", "FromYear": -202, "ToYear": -198, "Area": 2042614.9464548582, "Type": "POLITY", "Wikipedia": "Han dynasty", "SeshatID": "cn_western_han_dyn", "MemberOf": "(Han Dynasty)", "Components": ""}, "geometry": {"type": "MultiPolygon", "coordinates": [[[[122.04503631591797, 30.179353713989258], [122.2725830078125, 30.179353713989258], [122.27982330322266, 29.986536026000977], [121.97661590576172, 29.986536026000977], [122.02213287353516, 30.115081787109375], [122.04503631591797, 30.179353713989258]]], [[[124.7970962524414, 41.06801223754883], [124.41182708740234, 40.29063034057617], [123.87106323242188, 39.90232849121094], [123.876220703125, 39.77294921875], [123.59744262695312, 39.8376350402832], [122.93595886230469, 39.64360046386719], [122.17044830322266, 39.25570297241211], [121.95193481445312, 38.997230529785156], [121.71622467041016, 38.997230529785156], [121.42170715332031, 38.738853454589844], [121.02933502197266, 38.738853454589844], [121.20073699951172, 39.06184005737305], [121.51512908935547, 39.06184005737305], [121.69013214111328, 39.38497543334961], [121.2965316772461, 39.38497543334961], [121.20963287353516, 39.51427459716797], [121.28069305419922, 39.64360046386719], [121.43833923339844, 39.64360046386719], [121.50332641601562, 39.90232849121094], [121.7764663696289, 39.9670295715332], [122.23056030273438, 40.4848747253418], [122.10609436035156, 40.6791877746582], [121.82695770263672, 40.74397277832031], [121.82366180419922, 40.873565673828125], [121.1097640991211, 40.873565673828125], [120.9967269897461, 40.6791877746582], [120.64734649658203, 40.4848747253418], [120.50029754638672, 40.225894927978516], [119.38044738769531, 39.77294921875], [119.21530151367188, 39.320335388183594], [118.44984436035156, 39.06184005737305], [118.0568618774414, 39.06184005737305], [118.04566192626953, 39.19107437133789], [117.88837432861328, 39.19107437133789], [117.57643127441406, 38.738853454589844], [117.6549072265625, 38.738853454589844], [117.60245513916016, 38.48057174682617], [118.05360412597656, 38.28691864013672], [118.06742095947266, 38.157840728759766], [118.58300018310547, 38.09331130981445], [118.64759826660156, 38.22237777709961], [118.80416870117188, 38.22237777709961], [118.77176666259766, 38.157840728759766], [119.4571304321289, 37.96426773071289], [119.3928451538086, 37.835243225097656], [119.23655700683594, 37.835243225097656], [118.98403930664062, 37.3193473815918], [119.13996124267578, 37.3193473815918], [119.15568542480469, 37.1904182434082], [119.70111083984375, 37.1904182434082], [119.82661437988281, 37.44829177856445], [120.20220184326172, 37.5772590637207], [120.18807220458984, 37.706241607666016], [120.75377655029297, 37.89975357055664], [121.11202239990234, 37.835243225097656], [121.17103576660156, 37.641746520996094], [121.48333740234375, 37.641746520996094], [121.49687957763672, 37.51277160644531], [122.15351867675781, 37.5772590637207], [122.1211166381836, 37.51277160644531], [122.71288299560547, 37.44829177856445], [122.47421264648438, 37.12596130371094], [122.56636810302734, 36.9970588684082], [122.39389038085938, 36.80373764038086], [121.91207885742188, 36.932613372802734], [121.21208190917969, 36.61045455932617], [120.97892761230469, 36.61045455932617], [120.96481323242188, 36.417205810546875], [120.73184967041016, 36.417205810546875], [120.65852355957031, 36.09519577026367], [120.31848907470703, 36.03080368041992], [119.98648071289062, 35.644527435302734], [119.61874389648438, 35.51579284667969], [119.22760772705078, 34.80794906616211], [119.45901489257812, 34.80794906616211], [119.43090057373047, 34.743614196777344], [119.71125030517578, 34.679283142089844], [119.73230743408203, 34.55062484741211], [120.3418197631836, 34.3576545715332], [120.48936462402344, 34.164703369140625], [120.55045318603516, 33.5859489440918], [120.92630004882812, 33.20018768310547], [120.91920471191406, 32.62162780761719], [121.40264892578125, 32.493072509765625], [121.50330352783203, 32.171695709228516], [121.78321075439453, 32.107421875], [121.98702239990234, 31.8503360748291], [121.83556365966797, 31.65752601623535], [121.68311309814453, 31.65752601623535], [121.58055877685547, 31.78606605529785], [120.91914367675781, 31.8503360748291], [121.45442962646484, 31.65752601623535], [121.48112487792969, 31.528987884521484], [121.63350677490234, 31.528987884521484], [121.58425903320312, 31.40045166015625], [121.73657989501953, 31.40045166015625], [121.99526977539062, 31.079113006591797], [121.89926147460938, 30.822044372558594], [121.51921844482422, 30.822044372558594], [121.19719696044922, 30.564971923828125], [121.04530334472656, 30.564971923828125], [120.67976379394531, 30.179353713989258], [120.80880737304688, 30.115081787109375], [121.10469055175781, 30.307893753051758], [121.48409271240234, 30.307893753051758], [121.6202392578125, 30.050809860229492], [122.02978515625, 29.922264099121094], [121.864501953125, 29.665164947509766], [122.01595306396484, 29.665164947509766], [121.93843078613281, 29.21521759033203], [121.71156311035156, 29.21521759033203], [121.74463653564453, 29.536611557006836], [121.57134246826172, 29.472333908081055], [121.64702606201172, 29.472333908081055], [121.53888702392578, 29.150936126708984], [121.74431610107422, 29.08665657043457], [121.7143325805664, 28.765243530273438], [121.52177429199219, 28.636676788330078], [121.65211486816406, 28.572391510009766], [121.64590454101562, 28.315250396728516], [121.15326690673828, 28.186676025390625], [121.1933822631836, 28.315250396728516], [121.11795806884766, 28.315250396728516], [121.03816223144531, 28.058101654052734], [120.86773681640625, 27.993812561035156], [120.71461486816406, 27.736658096313477], [120.65725708007812, 27.54378890991211], [120.73251342773438, 27.54378890991211], [120.54503631591797, 27.158044815063477], [120.39466857910156, 27.158044815063477], [120.24666595458984, 26.900876998901367], [120.09639739990234, 26.900876998901367], [120.06058502197266, 26.772293090820312], [120.21080017089844, 26.772293090820312], [120.1576919555664, 26.57941436767578], [119.83992767333984, 26.515121459960938], [119.93810272216797, 26.32224464416504], [119.5870132446289, 26.129364013671875], [119.57019805908203, 26.06507110595703], [119.25361633300781, 26.000778198242188], [119.1370849609375, 26.129364013671875], [119.00907135009766, 26.772293090820312], [118.87651824951172, 26.836584091186523], [118.62515258789062, 27.800947189331055], [118.4935302734375, 27.865236282348633], [118.42247772216797, 28.379535675048828], [118.29135131835938, 28.44382095336914], [118.35115051269531, 28.636676788330078], [118.16490936279297, 28.765243530273438], [118.03557586669922, 29.536611557006836], [117.80848693847656, 29.536611557006836], [117.69961547851562, 29.665164947509766], [116.53041076660156, 29.79371452331543], [116.27002716064453, 29.922264099121094], [116.12885284423828, 30.179353713989258], [115.97715759277344, 30.179353713989258], [115.80384063720703, 30.115081787109375], [115.64249420166016, 29.857990264892578], [115.25914001464844, 28.893810272216797], [115.33468627929688, 28.893810272216797], [114.95323181152344, 26.772293090820312], [115.0283432006836, 26.772293090820312], [114.96107482910156, 26.515121459960938], [115.22809600830078, 26.386537551879883], [114.78068542480469, 25.48643684387207], [114.53314208984375, 24.393482208251953], [113.82787322998047, 24.586353302001953], [112.10919189453125, 24.586353302001953], [111.45723724365234, 24.329193115234375], [111.02249908447266, 24.393482208251953], [111.03593444824219, 24.457773208618164], [111.35646057128906, 24.907808303833008], [111.60587310791016, 25.67931365966797], [111.5460433959961, 25.743606567382812], [111.81970977783203, 26.257951736450195], [111.96543884277344, 26.836584091186523], [111.89031982421875, 26.836584091186523], [112.0551528930664, 27.736658096313477], [111.94014739990234, 27.865236282348633], [111.9552230834961, 28.186676025390625], [111.72728729248047, 28.44382095336914], [110.80179595947266, 28.893810272216797], [110.4430160522461, 28.958093643188477], [108.27031707763672, 29.022375106811523], [107.64720153808594, 28.958093643188477], [106.72551727294922, 28.636676788330078], [106.27256774902344, 28.636676788330078], [106.02836608886719, 28.572391510009766], [106.06861114501953, 28.44382095336914], [105.61591339111328, 28.44382095336914], [105.43032836914062, 28.315250396728516], [104.61784362792969, 28.379535675048828], [104.06596374511719, 28.572391510009766], [103.89775848388672, 28.508106231689453], [103.85684967041016, 28.636676788330078], [102.9273452758789, 28.829526901245117], [102.60204315185547, 29.022375106811523], [101.61407470703125, 29.279497146606445], [101.44043731689453, 29.472333908081055], [101.15557098388672, 29.536611557006836], [100.98237609863281, 29.729440689086914], [101.01869201660156, 29.857990264892578], [100.82791137695312, 29.986536026000977], [100.86476135253906, 30.115081787109375], [100.67433166503906, 30.243623733520508], [100.67346954345703, 30.500701904296875], [100.59754180908203, 30.500701904296875], [100.8466796875, 31.079113006591797], [101.33087158203125, 31.65752601623535], [101.83576965332031, 32.043148040771484], [102.1578369140625, 32.557350158691406], [102.31184387207031, 33.45735549926758], [102.23511505126953, 33.45735549926758], [102.32524871826172, 33.71455001831055], [102.24845123291016, 33.71455001831055], [102.40869140625, 34.164703369140625], [103.0943603515625, 34.3576545715332], [103.37882232666016, 34.2933349609375], [103.59811401367188, 34.679283142089844], [105.23469543457031, 35.12965774536133], [105.2594985961914, 35.194007873535156], [106.18482971191406, 35.38706970214844], [106.49311065673828, 35.58015823364258], [106.69967651367188, 35.51579284667969], [107.26708221435547, 35.77327346801758], [108.30186462402344, 36.03080368041992], [108.7540512084961, 36.73930740356445], [110.13337707519531, 38.09331130981445], [111.48646545410156, 38.80344009399414], [112.07821655273438, 39.8376350402832], [112.6287612915039, 40.29063034057617], [113.48834228515625, 40.42012023925781], [114.04228210449219, 40.42012023925781], [114.00764465332031, 40.355369567871094], [114.48229217529297, 40.355369567871094], [114.44762420654297, 40.29063034057617], [114.79872131347656, 40.355369567871094], [114.76395416259766, 40.29063034057617], [115.28268432617188, 40.225894927978516], [115.54975891113281, 39.8376350402832], [116.10205078125, 39.8376350402832], [117.10945892333984, 40.0964469909668], [117.45270538330078, 40.29063034057617], [118.97895050048828, 40.614410400390625], [122.92768859863281, 41.911441802978516], [123.1669921875, 41.911441802978516], [123.12676239013672, 41.84651184082031], [123.40548706054688, 41.781593322753906], [123.36537170410156, 41.71668243408203], [123.60441589355469, 41.71668243408203], [123.56433868408203, 41.65177917480469], [123.84288024902344, 41.586883544921875], [123.80292510986328, 41.521995544433594], [124.04171752929688, 41.521995544433594], [124.00180053710938, 41.45711898803711], [124.28016662597656, 41.39224624633789], [124.2403793334961, 41.32738494873047], [124.47891998291016, 41.32738494873047], [124.43917083740234, 41.26253128051758], [124.83663940429688, 41.132843017578125], [124.7970962524414, 41.06801223754883]]]]}}, {"type": "Feature", "properties": {"Name": "Han Dynasty", "FromYear": 6, "ToYear": 13, "Area": 143.43574035722298, "Type": "POLITY", "Wikipedia": "Han dynasty", "SeshatID": "cn_western_han_dyn", "MemberOf": "(Han Dynasty)", "Components": ""}, "geometry": {"type": "MultiPolygon", "coordinates": [[[[113.024169921875, 40.29063034057617], [112.9450912475586, 40.29063034057617], [112.97925567626953, 40.355369567871094], [113.05835723876953, 40.355369567871094], [113.024169921875, 40.29063034057617]]], [[[80.13379669189453, 42.43117141723633], [80.21379852294922, 42.43117141723633], [80.18842315673828, 42.36617660522461], [80.16311645507812, 42.30118942260742], [80.08317565917969, 42.30118942260742], [80.10845184326172, 42.36617660522461], [80.13379669189453, 42.43117141723633]]]]}}, {"type": "Feature", "properties": {"Name": "(Han Dynasty)", "FromYear": -202, "ToYear": -198, "Area": 2042614.9464548582, "Type": "POLITY", "Wikipedia": "Han dynasty", "SeshatID": "cn_western_han_dyn", "MemberOf": "", "Components": "Han Dynasty"}, "geometry": {"type": "MultiPolygon", "coordinates": [[[[122.04503631591797, 30.179353713989258], [122.2725830078125, 30.179353713989258], [122.27982330322266, 29.986536026000977], [121.97661590576172, 29.986536026000977], [122.02213287353516, 30.115081787109375], [122.04503631591797, 30.179353713989258]]], [[[124.7970962524414, 41.06801223754883], [124.41182708740234, 40.29063034057617], [123.87106323242188, 39.90232849121094], [123.876220703125, 39.77294921875], [123.59744262695312, 39.8376350402832], [122.93595886230469, 39.64360046386719], [122.17044830322266, 39.25570297241211], [121.95193481445312, 38.997230529785156], [121.71622467041016, 38.997230529785156], [121.42170715332031, 38.738853454589844], [121.02933502197266, 38.738853454589844], [121.20073699951172, 39.06184005737305], [121.51512908935547, 39.06184005737305], [121.69013214111328, 39.38497543334961], [121.2965316772461, 39.38497543334961], [121.20963287353516, 39.51427459716797], [121.28069305419922, 39.64360046386719], [121.43833923339844, 39.64360046386719], [121.50332641601562, 39.90232849121094], [121.7764663696289, 39.9670295715332], [122.23056030273438, 40.4848747253418], [122.10609436035156, 40.6791877746582], [121.82695770263672, 40.74397277832031], [121.82366180419922, 40.873565673828125], [121.1097640991211, 40.873565673828125], [120.9967269897461, 40.6791877746582], [120.64734649658203, 40.4848747253418], [120.50029754638672, 40.225894927978516], [119.38044738769531, 39.77294921875], [119.21530151367188, 39.320335388183594], [118.44984436035156, 39.06184005737305], [118.0568618774414, 39.06184005737305], [118.04566192626953, 39.19107437133789], [117.88837432861328, 39.19107437133789], [117.57643127441406, 38.738853454589844], [117.6549072265625, 38.738853454589844], [117.60245513916016, 38.48057174682617], [118.05360412597656, 38.28691864013672], [118.06742095947266, 38.157840728759766], [118.58300018310547, 38.09331130981445], [118.64759826660156, 38.22237777709961], [118.80416870117188, 38.22237777709961], [118.77176666259766, 38.157840728759766], [119.4571304321289, 37.96426773071289], [119.3928451538086, 37.835243225097656], [119.23655700683594, 37.835243225097656], [118.98403930664062, 37.3193473815918], [119.13996124267578, 37.3193473815918], [119.15568542480469, 37.1904182434082], [119.70111083984375, 37.1904182434082], [119.82661437988281, 37.44829177856445], [120.20220184326172, 37.5772590637207], [120.18807220458984, 37.706241607666016], [120.75377655029297, 37.89975357055664], [121.11202239990234, 37.835243225097656], [121.17103576660156, 37.641746520996094], [121.48333740234375, 37.641746520996094], [121.49687957763672, 37.51277160644531], [122.15351867675781, 37.5772590637207], [122.1211166381836, 37.51277160644531], [122.71288299560547, 37.44829177856445], [122.47421264648438, 37.12596130371094], [122.56636810302734, 36.9970588684082], [122.39389038085938, 36.80373764038086], [121.91207885742188, 36.932613372802734], [121.21208190917969, 36.61045455932617], [120.97892761230469, 36.61045455932617], [120.96481323242188, 36.417205810546875], [120.73184967041016, 36.417205810546875], [120.65852355957031, 36.09519577026367], [120.31848907470703, 36.03080368041992], [119.98648071289062, 35.644527435302734], [119.61874389648438, 35.51579284667969], [119.22760772705078, 34.80794906616211], [119.45901489257812, 34.80794906616211], [119.43090057373047, 34.743614196777344], [119.71125030517578, 34.679283142089844], [119.73230743408203, 34.55062484741211], [120.3418197631836, 34.3576545715332], [120.48936462402344, 34.164703369140625], [120.55045318603516, 33.5859489440918], [120.92630004882812, 33.20018768310547], [120.91920471191406, 32.62162780761719], [121.40264892578125, 32.493072509765625], [121.50330352783203, 32.171695709228516], [121.78321075439453, 32.107421875], [121.98702239990234, 31.8503360748291], [121.83556365966797, 31.65752601623535], [121.68311309814453, 31.65752601623535], [121.58055877685547, 31.78606605529785], [120.91914367675781, 31.8503360748291], [121.45442962646484, 31.65752601623535], [121.48112487792969, 31.528987884521484], [121.63350677490234, 31.528987884521484], [121.58425903320312, 31.40045166015625], [121.73657989501953, 31.40045166015625], [121.99526977539062, 31.079113006591797], [121.89926147460938, 30.822044372558594], [121.51921844482422, 30.822044372558594], [121.19719696044922, 30.564971923828125], [121.04530334472656, 30.564971923828125], [120.67976379394531, 30.179353713989258], [120.80880737304688, 30.115081787109375], [121.10469055175781, 30.307893753051758], [121.48409271240234, 30.307893753051758], [121.6202392578125, 30.050809860229492], [122.02978515625, 29.922264099121094], [121.864501953125, 29.665164947509766], [122.01595306396484, 29.665164947509766], [121.93843078613281, 29.21521759033203], [121.71156311035156, 29.21521759033203], [121.74463653564453, 29.536611557006836], [121.57134246826172, 29.472333908081055], [121.64702606201172, 29.472333908081055], [121.53888702392578, 29.150936126708984], [121.74431610107422, 29.08665657043457], [121.7143325805664, 28.765243530273438], [121.52177429199219, 28.636676788330078], [121.65211486816406, 28.572391510009766], [121.64590454101562, 28.315250396728516], [121.15326690673828, 28.186676025390625], [121.1933822631836, 28.315250396728516], [121.11795806884766, 28.315250396728516], [121.03816223144531, 28.058101654052734], [120.86773681640625, 27.993812561035156], [120.71461486816406, 27.736658096313477], [120.65725708007812, 27.54378890991211], [120.73251342773438, 27.54378890991211], [120.54503631591797, 27.158044815063477], [120.39466857910156, 27.158044815063477], [120.24666595458984, 26.900876998901367], [120.09639739990234, 26.900876998901367], [120.06058502197266, 26.772293090820312], [120.21080017089844, 26.772293090820312], [120.1576919555664, 26.57941436767578], [119.83992767333984, 26.515121459960938], [119.93810272216797, 26.32224464416504], [119.5870132446289, 26.129364013671875], [119.57019805908203, 26.06507110595703], [119.25361633300781, 26.000778198242188], [119.1370849609375, 26.129364013671875], [119.00907135009766, 26.772293090820312], [118.87651824951172, 26.836584091186523], [118.62515258789062, 27.800947189331055], [118.4935302734375, 27.865236282348633], [118.42247772216797, 28.379535675048828], [118.29135131835938, 28.44382095336914], [118.35115051269531, 28.636676788330078], [118.16490936279297, 28.765243530273438], [118.03557586669922, 29.536611557006836], [117.80848693847656, 29.536611557006836], [117.69961547851562, 29.665164947509766], [116.53041076660156, 29.79371452331543], [116.27002716064453, 29.922264099121094], [116.12885284423828, 30.179353713989258], [115.97715759277344, 30.179353713989258], [115.80384063720703, 30.115081787109375], [115.64249420166016, 29.857990264892578], [115.25914001464844, 28.893810272216797], [115.33468627929688, 28.893810272216797], [114.95323181152344, 26.772293090820312], [115.0283432006836, 26.772293090820312], [114.96107482910156, 26.515121459960938], [115.22809600830078, 26.386537551879883], [114.78068542480469, 25.48643684387207], [114.53314208984375, 24.393482208251953], [113.82787322998047, 24.586353302001953], [112.10919189453125, 24.586353302001953], [111.45723724365234, 24.329193115234375], [111.02249908447266, 24.393482208251953], [111.03593444824219, 24.457773208618164], [111.35646057128906, 24.907808303833008], [111.60587310791016, 25.67931365966797], [111.5460433959961, 25.743606567382812], [111.81970977783203, 26.257951736450195], [111.96543884277344, 26.836584091186523], [111.89031982421875, 26.836584091186523], [112.0551528930664, 27.736658096313477], [111.94014739990234, 27.865236282348633], [111.9552230834961, 28.186676025390625], [111.72728729248047, 28.44382095336914], [110.80179595947266, 28.893810272216797], [110.4430160522461, 28.958093643188477], [108.27031707763672, 29.022375106811523], [107.64720153808594, 28.958093643188477], [106.72551727294922, 28.636676788330078], [106.27256774902344, 28.636676788330078], [106.02836608886719, 28.572391510009766], [106.06861114501953, 28.44382095336914], [105.61591339111328, 28.44382095336914], [105.43032836914062, 28.315250396728516], [104.61784362792969, 28.379535675048828], [104.06596374511719, 28.572391510009766], [103.89775848388672, 28.508106231689453], [103.85684967041016, 28.636676788330078], [102.9273452758789, 28.829526901245117], [102.60204315185547, 29.022375106811523], [101.61407470703125, 29.279497146606445], [101.44043731689453, 29.472333908081055], [101.15557098388672, 29.536611557006836], [100.98237609863281, 29.729440689086914], [101.01869201660156, 29.857990264892578], [100.82791137695312, 29.986536026000977], [100.86476135253906, 30.115081787109375], [100.67433166503906, 30.243623733520508], [100.67346954345703, 30.500701904296875], [100.59754180908203, 30.500701904296875], [100.8466796875, 31.079113006591797], [101.33087158203125, 31.65752601623535], [101.83576965332031, 32.043148040771484], [102.1578369140625, 32.557350158691406], [102.31184387207031, 33.45735549926758], [102.23511505126953, 33.45735549926758], [102.32524871826172, 33.71455001831055], [102.24845123291016, 33.71455001831055], [102.40869140625, 34.164703369140625], [103.0943603515625, 34.3576545715332], [103.37882232666016, 34.2933349609375], [103.59811401367188, 34.679283142089844], [105.23469543457031, 35.12965774536133], [105.2594985961914, 35.194007873535156], [106.18482971191406, 35.38706970214844], [106.49311065673828, 35.58015823364258], [106.69967651367188, 35.51579284667969], [107.26708221435547, 35.77327346801758], [108.30186462402344, 36.03080368041992], [108.7540512084961, 36.73930740356445], [110.13337707519531, 38.09331130981445], [111.48646545410156, 38.80344009399414], [112.07821655273438, 39.8376350402832], [112.6287612915039, 40.29063034057617], [113.48834228515625, 40.42012023925781], [114.04228210449219, 40.42012023925781], [114.00764465332031, 40.355369567871094], [114.48229217529297, 40.355369567871094], [114.44762420654297, 40.29063034057617], [114.79872131347656, 40.355369567871094], [114.76395416259766, 40.29063034057617], [115.28268432617188, 40.225894927978516], [115.54975891113281, 39.8376350402832], [116.10205078125, 39.8376350402832], [117.10945892333984, 40.0964469909668], [117.45270538330078, 40.29063034057617], [118.97895050048828, 40.614410400390625], [122.92768859863281, 41.911441802978516], [123.1669921875, 41.911441802978516], [123.12676239013672, 41.84651184082031], [123.40548706054688, 41.781593322753906], [123.36537170410156, 41.71668243408203], [123.60441589355469, 41.71668243408203], [123.56433868408203, 41.65177917480469], [123.84288024902344, 41.586883544921875], [123.80292510986328, 41.521995544433594], [124.04171752929688, 41.521995544433594], [124.00180053710938, 41.45711898803711], [124.28016662597656, 41.39224624633789], [124.2403793334961, 41.32738494873047], [124.47891998291016, 41.32738494873047], [124.43917083740234, 41.26253128051758], [124.83663940429688, 41.132843017578125], [124.7970962524414, 41.06801223754883]]]]}}, {"type": "Feature", "properties": {"Name": "(Han Dynasty)", "FromYear": 6, "ToYear": 13, "Area": 143.43574035722298, "Type": "POLITY", "Wikipedia": "Han dynasty", "SeshatID": "cn_western_han_dyn", "MemberOf": "", "Components": "Han Dynasty"}, "geometry": {"type": "MultiPolygon", "coordinates": [[[[113.024169921875, 40.29063034057617], [112.9450912475586, 40.29063034057617], [112.97925567626953, 40.355369567871094], [113.05835723876953, 40.355369567871094], [113.024169921875, 40.29063034057617]]], [[[80.13379669189453, 42.43117141723633], [80.21379852294922, 42.43117141723633], [80.18842315673828, 42.36617660522461], [80.16311645507812, 42.30118942260742], [80.08317565917969, 42.30118942260742], [80.10845184326172, 42.36617660522461], [80.13379669189453, 42.43117141723633]]]]}}, {"type": "Feature", "properties": {"Name": "(Han Dynasty)", "FromYear": 224, "ToYear": 237, "Area": 788998.9728936737, "Type": "POLITY", "Wikipedia": "Han dynasty", "SeshatID": "", "MemberOf": "", "Components": "Liu Biao;Shi Xie"}, "geometry": {"type": "MultiPolygon", "coordinates": [[[[110.1794204711914, 18.479066848754883], [109.86219787597656, 18.350492477416992], [109.84064483642578, 18.2219181060791], [109.24968719482422, 18.2219181060791], [109.12333679199219, 18.350492477416992], [108.76459503173828, 18.414779663085938], [108.63818359375, 18.543354034423828], [108.70427703857422, 19.379087448120117], [109.20277404785156, 19.700523376464844], [109.2463607788086, 19.95766830444336], [110.15737915039062, 20.08624267578125], [110.59095001220703, 20.021955490112305], [110.613037109375, 20.150527954101562], [110.90947723388672, 20.150527954101562], [111.08741760253906, 19.893383026123047], [111.03193664550781, 19.571949005126953], [110.88386535644531, 19.571949005126953], [110.85066986083984, 19.379087448120117], [110.68057250976562, 19.25051498413086], [110.50775909423828, 18.67193031311035], [110.1902847290039, 18.543354034423828], [110.1794204711914, 18.479066848754883]]], [[[114.53111267089844, 22.143402099609375], [113.99858856201172, 22.079116821289062], [113.99634552001953, 22.46483612060547], [113.78524017333984, 22.529123306274414], [113.7474365234375, 22.72198486328125], [113.59854125976562, 22.72198486328125], [113.69869995117188, 22.46483612060547], [113.63867950439453, 22.143402099609375], [113.41557312011719, 22.143402099609375], [113.31752014160156, 22.014829635620117], [113.10626220703125, 22.079116821289062], [113.07096862792969, 21.88625717163086], [112.77362823486328, 21.88625717163086], [112.44146728515625, 21.693397521972656], [111.85850524902344, 21.7576847076416], [111.6640625, 21.500539779663086], [110.98419189453125, 21.43625259399414], [110.73885345458984, 21.307680130004883], [110.71642303466797, 21.179107666015625], [110.41944885253906, 21.179107666015625], [110.48252868652344, 21.114822387695312], [110.36384582519531, 20.857677459716797], [110.61627197265625, 20.60053253173828], [110.48687744140625, 20.279102325439453], [109.88289642333984, 20.214815139770508], [109.9267807006836, 20.471960067749023], [109.7894515991211, 20.53624725341797], [109.7702407836914, 20.857677459716797], [109.69603729248047, 20.857677459716797], [109.87005615234375, 21.43625259399414], [109.80696105957031, 21.500539779663086], [109.11621856689453, 21.371967315673828], [109.08638000488281, 21.629112243652344], [108.65169525146484, 21.693397521972656], [108.55519104003906, 21.5648250579834], [107.79033660888672, 21.43625259399414], [107.41735076904297, 20.986249923706055], [106.9613265991211, 20.921964645385742], [106.8337173461914, 20.60053253173828], [106.68537902832031, 20.60053253173828], [106.53694915771484, 20.150527954101562], [105.9654769897461, 19.8290958404541], [105.73389434814453, 18.864791870117188], [106.05134582519531, 18.543354034423828], [106.030517578125, 18.414779663085938], [106.17830657958984, 18.414779663085938], [106.29487609863281, 18.2219181060791], [106.56956481933594, 18.093341827392578], [106.57118225097656, 17.643327713012695], [106.7720947265625, 17.514753341674805], [106.75170135498047, 17.38617706298828], [106.96282958984375, 17.321889877319336], [106.95267486572266, 17.257600784301758], [106.5337142944336, 16.9361629486084], [106.54369354248047, 17.000450134277344], [106.396240234375, 17.000450134277344], [106.416259765625, 17.129026412963867], [105.143798828125, 18.414779663085938], [105.18512725830078, 18.67193031311035], [105.03726959228516, 18.67193031311035], [105.14230346679688, 18.864791870117188], [105.0151596069336, 18.993366241455078], [105.01402282714844, 19.443374633789062], [104.94000244140625, 19.443374633789062], [104.99213409423828, 19.764808654785156], [104.8648452758789, 19.893383026123047], [104.98062133789062, 20.150527954101562], [104.4395751953125, 20.471960067749023], [104.61909484863281, 20.664819717407227], [104.90534973144531, 20.60053253173828], [104.87299346923828, 20.857677459716797], [105.09559631347656, 20.857677459716797], [104.8512954711914, 21.179107666015625], [104.97850036621094, 21.500539779663086], [104.925537109375, 21.629112243652344], [105.0955810546875, 21.7576847076416], [105.1279525756836, 21.950544357299805], [104.87400817871094, 22.20768928527832], [105.23788452148438, 22.59341049194336], [105.20843505859375, 22.85055923461914], [105.50630187988281, 22.85055923461914], [105.67808532714844, 22.97913360595703], [105.6895751953125, 23.043420791625977], [106.1561279296875, 23.557723999023438], [106.4664306640625, 23.622013092041016], [107.14945220947266, 24.07203483581543], [108.90493774414062, 24.264904022216797], [109.22982788085938, 24.393482208251953], [109.40572357177734, 24.522062301635742], [109.45394134521484, 25.100683212280273], [109.34666442871094, 25.29355812072754], [109.38973999023438, 25.48643684387207], [109.31486511230469, 25.48643684387207], [109.35863494873047, 25.67931365966797], [109.22354888916016, 25.743606567382812], [109.11929321289062, 26.257951736450195], [109.04428100585938, 26.257951736450195], [109.1108627319336, 26.836584091186523], [109.0357437133789, 26.836584091186523], [109.15038299560547, 27.2866268157959], [109.53583526611328, 27.608078002929688], [109.68638610839844, 27.608078002929688], [109.83100891113281, 27.865236282348633], [109.56051635742188, 28.25096321105957], [109.63294982910156, 28.508106231689453], [109.46163940429688, 28.700960159301758], [109.53661346435547, 29.21521759033203], [109.36744689941406, 29.40805435180664], [109.36983489990234, 29.665164947509766], [109.25785827636719, 29.79371452331543], [109.03059387207031, 29.79371452331543], [109.0345687866211, 30.050809860229492], [108.6603775024414, 30.307893753051758], [108.89432525634766, 30.564971923828125], [108.78396606445312, 30.69350814819336], [108.85581970214844, 31.143381118774414], [109.12716674804688, 31.271915435791016], [109.8122787475586, 31.271915435791016], [110.16061401367188, 31.40045166015625], [110.47794342041016, 31.65752601623535], [110.61365509033203, 32.043148040771484], [110.8656005859375, 32.107421875], [111.6895980834961, 31.8503360748291], [113.32134246826172, 31.7217960357666], [113.3058090209961, 31.464719772338867], [113.43539428710938, 31.40045166015625], [113.3901138305664, 31.271915435791016], [113.49735260009766, 31.143381118774414], [114.2132568359375, 31.014846801757812], [114.50425720214844, 30.757776260375977], [114.49229431152344, 30.500701904296875], [114.62235260009766, 30.436433792114258], [114.61188507080078, 30.179353713989258], [114.74217987060547, 30.115081787109375], [114.56076049804688, 29.79371452331543], [114.82205200195312, 29.665164947509766], [114.7601318359375, 29.472333908081055], [114.9259262084961, 29.279497146606445], [114.21847534179688, 28.700960159301758], [113.95369720458984, 28.058101654052734], [114.21825408935547, 27.92952537536621], [113.98125457763672, 27.35091781616211], [114.171875, 27.222335815429688], [113.96005249023438, 26.70800018310547], [114.3440933227539, 26.450830459594727], [114.26286315917969, 26.129364013671875], [114.4718017578125, 26.06507110595703], [114.30255126953125, 25.67931365966797], [114.37745666503906, 25.67931365966797], [114.36103057861328, 25.29355812072754], [115.09441375732422, 25.229267120361328], [115.03514099121094, 24.97209930419922], [114.58926391601562, 24.650644302368164], [114.54705810546875, 24.457773208618164], [114.50553131103516, 24.264904022216797], [114.72286224365234, 23.879167556762695], [114.70543670654297, 23.429147720336914], [114.81591796875, 23.236284255981445], [114.80213165283203, 22.786272048950195], [114.71526336669922, 22.72198486328125], [114.64081573486328, 22.72198486328125], [114.62846374511719, 22.657697677612305], [114.61614990234375, 22.59341049194336], [114.53111267089844, 22.143402099609375]]]]}}, {"type": "Feature", "properties": {"Name": "Himyarite Kingdom", "FromYear": 534, "ToYear": 576, "Area": 55.50824896559597, "Type": "POLITY", "Wikipedia": "Himyarite Kingdom", "SeshatID": "", "MemberOf": "", "Components": ""}, "geometry": {"type": "Polygon", "coordinates": [[[43.897132873535156, 18.607641220092773], [43.74177551269531, 18.479066848754883], [43.89335632324219, 18.543354034423828], [43.897132873535156, 18.607641220092773]]]}}, {"type": "Feature", "properties": {"Name": "Goguryeo", "FromYear": 612, "ToYear": 616, "Area": 307709.54708367545, "Type": "POLITY", "Wikipedia": "Goguryeo", "SeshatID": "kr_goguryeo_k", "MemberOf": "", "Components": ""}, "geometry": {"type": "MultiPolygon", "coordinates": [[[[122.89982604980469, 39.57893371582031], [122.17044830322266, 39.25570297241211], [122.0653076171875, 39.06184005737305], [121.71622467041016, 38.997230529785156], [121.42170715332031, 38.738853454589844], [121.02933502197266, 38.738853454589844], [121.20073699951172, 39.06184005737305], [121.51512908935547, 39.06184005737305], [121.69013214111328, 39.38497543334961], [121.2965316772461, 39.38497543334961], [121.20963287353516, 39.51427459716797], [121.28069305419922, 39.64360046386719], [121.43833923339844, 39.64360046386719], [121.50332641601562, 39.90232849121094], [121.7764663696289, 39.9670295715332], [122.15570831298828, 40.355369567871094], [122.19306945800781, 40.42012023925781], [122.38887786865234, 40.4848747253418], [122.35133361816406, 40.42012023925781], [122.50960540771484, 40.42012023925781], [122.47213745117188, 40.355369567871094], [122.63035583496094, 40.355369567871094], [122.71382904052734, 40.225894927978516], [122.95098876953125, 40.225894927978516], [122.91374206542969, 40.16116714477539], [123.0718002319336, 40.16116714477539], [123.03463745117188, 40.0964469909668], [123.19264221191406, 40.0964469909668], [123.27651977539062, 39.9670295715332], [123.51337432861328, 39.9670295715332], [123.59744262695312, 39.8376350402832], [123.56072998046875, 39.77294921875], [122.93595886230469, 39.64360046386719], [122.89982604980469, 39.57893371582031]]], [[[131.0601806640625, 44.12431716918945], [131.0140380859375, 44.05907440185547], [131.30252075195312, 44.12431716918945], [131.25628662109375, 44.05907440185547], [132.09805297851562, 43.99384307861328], [132.05166625976562, 43.92862319946289], [132.60418701171875, 43.79821014404297], [132.0999298095703, 43.08163070678711], [131.77874755859375, 43.08163070678711], [131.9146728515625, 43.276947021484375], [131.75390625, 43.276947021484375], [131.22511291503906, 42.62621307373047], [130.90475463867188, 42.62621307373047], [130.60537719726562, 42.30118942260742], [130.32212829589844, 42.236209869384766], [129.7823486328125, 41.781593322753906], [129.69317626953125, 41.521995544433594], [129.8822021484375, 41.19768524169922], [129.75584411621094, 40.873565673828125], [129.23776245117188, 40.6791877746582], [129.0777130126953, 40.42012023925781], [128.2890167236328, 40.031734466552734], [128.2100372314453, 40.031734466552734], [128.2876739501953, 40.16116714477539], [127.81350708007812, 40.16116714477539], [126.83229064941406, 39.8376350402832], [126.68653106689453, 39.449623107910156], [127.04317474365234, 39.38497543334961], [126.85972595214844, 39.06184005737305], [126.93832397460938, 39.06184005737305], [126.86581420898438, 38.93262481689453], [126.9867935180664, 38.8680305480957], [126.87922668457031, 38.67427444458008], [126.95767974853516, 38.67427444458008], [126.70243835449219, 38.351463317871094], [126.85910034179688, 38.351463317871094], [126.94571685791016, 38.22237777709961], [126.66026306152344, 37.835243225097656], [126.34768676757812, 37.835243225097656], [126.26954650878906, 37.835243225097656], [125.84493255615234, 37.7707405090332], [125.83466339111328, 37.89975357055664], [125.6783218383789, 37.89975357055664], [125.38711547851562, 37.641746520996094], [125.23096466064453, 37.641746520996094], [125.29808044433594, 37.7707405090332], [125.20932006835938, 37.89975357055664], [124.89665222167969, 37.89975357055664], [125.07669067382812, 38.09331130981445], [124.76374053955078, 38.09331130981445], [124.96138000488281, 38.60969924926758], [125.15330505371094, 38.67427444458008], [125.18850708007812, 38.738853454589844], [125.57337188720703, 38.8680305480957], [125.7893295288086, 39.25570297241211], [126.30353546142578, 39.19107437133789], [126.35558319091797, 39.9670295715332], [126.19223022460938, 40.225894927978516], [125.91436767578125, 40.29063034057617], [125.91236114501953, 40.42012023925781], [125.31781768798828, 40.4848747253418], [125.3160629272461, 40.614410400390625], [124.67924499511719, 40.873565673828125], [124.71839904785156, 40.93837356567383], [124.48035430908203, 40.93837356567383], [124.5195541381836, 41.00318908691406], [124.24127197265625, 41.06801223754883], [124.2806167602539, 41.132843017578125], [124.04232788085938, 41.132843017578125], [124.08171081542969, 41.19768524169922], [123.68377685546875, 41.32738494873047], [123.72337341308594, 41.39224624633789], [123.48474884033203, 41.39224624633789], [123.40493774414062, 41.521995544433594], [122.96699523925781, 41.586883544921875], [123.00675964355469, 41.65177917480469], [122.6083755493164, 41.781593322753906], [122.64832305908203, 41.84651184082031], [123.13011932373047, 42.236209869384766], [123.81564331054688, 42.56119155883789], [123.94416809082031, 42.88639831542969], [123.86396789550781, 42.88639831542969], [124.24553680419922, 43.472347259521484], [125.05272674560547, 44.32010269165039], [126.96666717529297, 44.5159797668457], [127.33573150634766, 44.58129119873047], [127.42636108398438, 44.71194839477539], [127.70513153076172, 44.64661407470703], [128.68820190429688, 44.77729415893555], [129.16268920898438, 45.10417556762695], [129.4064483642578, 45.10417556762695], [129.35995483398438, 45.03877639770508], [129.99761962890625, 44.908016204833984], [129.98570251464844, 44.77729415893555], [130.26353454589844, 44.71194839477539], [130.251708984375, 44.58129119873047], [130.4136962890625, 44.58129119873047], [130.47129821777344, 44.32010269165039], [130.74853515625, 44.25482940673828], [130.70236206054688, 44.18956756591797], [130.78317260742188, 44.18956756591797], [131.0601806640625, 44.12431716918945]]], [[[122.5288314819336, 41.65177917480469], [122.56855010986328, 41.71668243408203], [122.64823150634766, 41.71668243408203], [122.60848999023438, 41.65177917480469], [122.5288314819336, 41.65177917480469]]]]}}, {"type": "Feature", "properties": {"Name": "Atropates", "FromYear": -315, "ToYear": -308, "Area": 49.624209189981535, "Type": "LEADER", "Wikipedia": "Atropates", "SeshatID": "gr_macedonian_emp", "MemberOf": "(Macedonian Empire)", "Components": ""}, "geometry": {"type": "Polygon", "coordinates": [[[49.13147735595703, 36.8681755065918], [49.053672790527344, 36.8681755065918], [49.04291915893555, 36.80373764038086], [49.120704650878906, 36.80373764038086], [49.13147735595703, 36.8681755065918]]]}}, {"type": "Feature", "properties": {"Name": "Kingdom of Monaco", "FromYear": 1815, "ToYear": 1847, "Area": 234.95092920156023, "Type": "POLITY", "Wikipedia": "Monaco", "SeshatID": "", "MemberOf": "", "Components": ""}, "geometry": {"type": "MultiPolygon", "coordinates": [[[[7.31143856048584, 43.73301696777344], [7.230842113494873, 43.73301696777344], [7.229573249816895, 43.79821014404297], [7.310199737548828, 43.79821014404297], [7.31143856048584, 43.73301696777344]]], [[[7.470271110534668, 43.86341094970703], [7.550928592681885, 43.86341094970703], [7.552080154418945, 43.79821014404297], [7.471453189849854, 43.79821014404297], [7.39082670211792, 43.79821014404297], [7.310199737548828, 43.79821014404297], [7.308956146240234, 43.86341094970703], [7.389613628387451, 43.86341094970703], [7.388396263122559, 43.92862319946289], [7.4690842628479, 43.92862319946289], [7.470271110534668, 43.86341094970703]]]]}}, {"type": "Feature", "properties": {"Name": "Kingdom of Monaco", "FromYear": 1848, "ToYear": 1935, "Area": 94.1092938415935, "Type": "POLITY", "Wikipedia": "Monaco", "SeshatID": "", "MemberOf": "", "Components": ""}, "geometry": {"type": "Polygon", "coordinates": [[[7.150246143341064, 43.73301696777344], [7.151541233062744, 43.6678352355957], [7.152831554412842, 43.6026611328125], [7.2333664894104, 43.6026611328125], [7.232106685638428, 43.6678352355957], [7.230842113494873, 43.73301696777344], [7.150246143341064, 43.73301696777344]]]}}, {"type": "Feature", "properties": {"Name": "Kingdom of Monaco", "FromYear": 1936, "ToYear": 1938, "Area": 47.04112450218125, "Type": "POLITY", "Wikipedia": "Monaco", "SeshatID": "", "MemberOf": "", "Components": ""}, "geometry": {"type": "Polygon", "coordinates": [[[7.150246143341064, 43.73301696777344], [7.151541233062744, 43.6678352355957], [7.232106685638428, 43.6678352355957], [7.230842113494873, 43.73301696777344], [7.150246143341064, 43.73301696777344]]]}}, {"type": "Feature", "properties": {"Name": "Kingdom of Monaco", "FromYear": 1939, "ToYear": 1939, "Area": 47.04112450218125, "Type": "POLITY", "Wikipedia": "Monaco", "SeshatID": "", "MemberOf": "", "Components": ""}, "geometry": {"type": "Polygon", "coordinates": [[[7.150246143341064, 43.73301696777344], [7.151541233062744, 43.6678352355957], [7.232106685638428, 43.6678352355957], [7.230842113494873, 43.73301696777344], [7.150246143341064, 43.73301696777344]]]}}, {"type": "Feature", "properties": {"Name": "Greek Dark Ages", "FromYear": -1100, "ToYear": -1001, "Area": 47688.20840108766, "Type": "POLITY", "Wikipedia": "Greek Dark Ages", "SeshatID": "", "MemberOf": "", "Components": ""}, "geometry": {"type": "MultiPolygon", "coordinates": [[[[23.615402221679688, 35.51579284667969], [24.156919479370117, 35.51579284667969], [24.149879455566406, 35.38706970214844], [24.30097007751465, 35.32271194458008], [25.69233512878418, 35.32271194458008], [25.680648803710938, 35.12965774536133], [26.22533416748047, 35.194007873535156], [26.140073776245117, 35.065311431884766], [24.823745727539062, 35.00096893310547], [24.7574462890625, 35.194007873535156], [24.52567481994629, 35.194007873535156], [24.44841766357422, 35.194007873535156], [23.679210662841797, 35.258358001708984], [23.615402221679688, 35.51579284667969]]], [[[28.139331817626953, 36.03080368041992], [27.742563247680664, 35.902034759521484], [27.692523956298828, 36.28839111328125], [28.01713752746582, 36.48161697387695], [28.09481430053711, 36.48161697387695], [28.250165939331055, 36.48161697387695], [28.139331817626953, 36.03080368041992]]], [[[26.865324020385742, 36.67487716674805], [27.038949966430664, 36.932613372802734], [27.116777420043945, 36.932613372802734], [27.18541717529297, 36.80373764038086], [26.865324020385742, 36.67487716674805]]], [[[25.56435775756836, 36.9970588684082], [25.330806732177734, 36.9970588684082], [25.339021682739258, 37.12596130371094], [25.416915893554688, 37.12596130371094], [25.57270622253418, 37.12596130371094], [25.56435775756836, 36.9970588684082]]], [[[27.66632843017578, 36.9970588684082], [27.19460678100586, 36.932613372802734], [27.20850372314453, 37.12596130371094], [27.524837493896484, 37.1904182434082], [27.602754592895508, 37.1904182434082], [27.753768920898438, 37.12596130371094], [27.66632843017578, 36.9970588684082]]], [[[22.935583114624023, 38.738853454589844], [23.16720199584961, 38.67427444458008], [23.312631607055664, 38.48057174682617], [23.626148223876953, 38.48057174682617], [23.563383102416992, 38.738853454589844], [24.030162811279297, 38.67427444458008], [24.178871154785156, 38.54513168334961], [24.158668518066406, 38.22237777709961], [24.002099990844727, 38.22237777709961], [23.9786319732666, 37.835243225097656], [23.44280242919922, 38.028785705566406], [23.208162307739258, 38.028785705566406], [23.20083236694336, 37.89975357055664], [23.044498443603516, 37.89975357055664], [23.108261108398438, 37.641746520996094], [23.342487335205078, 37.641746520996094], [23.402393341064453, 37.3193473815918], [23.168506622314453, 37.3193473815918], [23.175601959228516, 37.44829177856445], [22.94858741760254, 37.5772590637207], [22.71442985534668, 37.5772590637207], [22.700735092163086, 37.3193473815918], [22.853219985961914, 37.254878997802734], [23.056013107299805, 36.67487716674805], [22.83283233642578, 36.8681755065918], [22.59941291809082, 36.8681755065918], [22.51182746887207, 36.67487716674805], [22.35634422302246, 36.67487716674805], [22.21999168395996, 37.06150817871094], [21.90850067138672, 37.06150817871094], [21.899152755737305, 36.8681755065918], [21.743539810180664, 36.8681755065918], [21.681032180786133, 37.1904182434082], [21.60311508178711, 37.1904182434082], [21.696598052978516, 37.51277160644531], [21.243581771850586, 37.835243225097656], [21.415550231933594, 38.157840728759766], [21.728593826293945, 38.157840728759766], [21.738431930541992, 38.351463317871094], [21.271604537963867, 38.416015625], [21.27796745300293, 38.54513168334961], [21.60150909423828, 38.738853454589844], [21.911989212036133, 38.67427444458008], [22.386259078979492, 38.738853454589844], [22.550477981567383, 38.8680305480957], [22.561494827270508, 39.06184005737305], [22.3439998626709, 39.38497543334961], [22.587739944458008, 39.51427459716797], [22.531944274902344, 39.90232849121094], [22.622661590576172, 40.0964469909668], [22.701663970947266, 40.0964469909668], [22.610868453979492, 39.90232849121094], [22.764768600463867, 39.8376350402832], [22.756925582885742, 39.70827102661133], [23.135168075561523, 39.449623107910156], [22.816326141357422, 39.38497543334961], [22.797286987304688, 39.06184005737305], [22.95830535888672, 39.1264533996582], [23.10781478881836, 38.997230529785156], [23.34353256225586, 38.997230529785156], [23.488826751708984, 38.80344009399414], [23.178667068481445, 38.8680305480957], [23.182519912719727, 38.93262481689453], [22.943096160888672, 38.8680305480957], [22.935583114624023, 38.738853454589844]], [[22.977134704589844, 38.09331130981445], [23.05537223815918, 38.09331130981445], [23.059024810791016, 38.157840728759766], [22.980764389038086, 38.157840728759766], [22.977134704589844, 38.09331130981445]], [[22.657155990600586, 37.96426773071289], [22.969919204711914, 37.96426773071289], [22.9061222076416, 38.22237777709961], [22.745981216430664, 38.157840728759766], [22.83506965637207, 38.351463317871094], [22.51470184326172, 38.22237777709961], [22.603641510009766, 38.416015625], [22.29022216796875, 38.416015625], [22.439908981323242, 38.28691864013672], [22.436416625976562, 38.22237777709961], [22.589460372924805, 38.157840728759766], [22.657155990600586, 37.96426773071289]], [[22.984405517578125, 38.22237777709961], [22.988061904907227, 38.28691864013672], [22.909753799438477, 38.28691864013672], [22.9061222076416, 38.22237777709961], [22.984405517578125, 38.22237777709961]], [[22.432939529418945, 38.157840728759766], [22.354679107666016, 38.157840728759766], [22.35123634338379, 38.09331130981445], [22.429473876953125, 38.09331130981445], [22.432939529418945, 38.157840728759766]], [[22.279848098754883, 38.22237777709961], [22.20156478881836, 38.22237777709961], [22.198156356811523, 38.157840728759766], [22.276418685913086, 38.157840728759766], [22.279848098754883, 38.22237777709961]], [[22.35813331604004, 38.22237777709961], [22.361600875854492, 38.28691864013672], [22.283292770385742, 38.28691864013672], [22.279848098754883, 38.22237777709961], [22.35813331604004, 38.22237777709961]]], [[[26.111188888549805, 38.157840728759766], [25.876405715942383, 38.157840728759766], [25.89913558959961, 38.48057174682617], [25.820756912231445, 38.48057174682617], [25.912982940673828, 38.67427444458008], [25.99143409729004, 38.67427444458008], [26.217344284057617, 38.54513168334961], [26.111188888549805, 38.157840728759766]]], [[[23.484909057617188, 38.738853454589844], [23.488826751708984, 38.80344009399414], [23.56732749938965, 38.80344009399414], [23.563383102416992, 38.738853454589844], [23.484909057617188, 38.738853454589844]]]]}}]}